[{"OBJECT_NAME":"ORBCOMM FM117","OBJECT_ID":"2015-081K","EPOCH":"2026-03-08T23:37:11.280576","MEAN_MOTION":14.58734322,"ECCENTRICITY":0.00025428,"INCLINATION":47.0015,"RA_OF_ASC_NODE":294.572,"ARG_OF_PERICENTER":102.3164,"MEAN_ANOMALY":257.8006,"EPHEMERIS_TYPE":0,"CLASSIFICATION_TYPE":"U","NORAD_CAT_ID":41188,"ELEMENT_SET_NO":999,"REV_AT_EPOCH":54549,"BSTAR":0.00024145216,"MEAN_MOTION_DOT":9.67e-6,"MEAN_MOTION_DDOT":0},{"OBJECT_NAME":"CZ-6A DEB","OBJECT_ID":"2022-151HF","EPOCH":"2026-03-09T15:40:31.564704","MEAN_MOTION":14.6307504,"ECCENTRICITY":0.00824297,"INCLINATION":98.632,"RA_OF_ASC_NODE":122.0817,"ARG_OF_PERICENTER":262.3515,"MEAN_ANOMALY":96.8318,"EPHEMERIS_TYPE":0,"CLASSIFICATION_TYPE":"U","NORAD_CAT_ID":54479,"ELEMENT_SET_NO":999,"REV_AT_EPOCH":17513,"BSTAR":0.001762624,"MEAN_MOTION_DOT":9.458e-5,"MEAN_MOTION_DDOT":0}]
